[{"OBJECT_NAME":"ONEWEB-0509","OBJECT_ID":"2022-138Q","EPOCH":"2025-09-26T16:54:20.465856","MEAN_MOTION":13.19726701,"ECCENTRICITY":0.00016459,"INCLINATION":87.9292,"RA_OF_ASC_NODE":357.3446,"ARG_OF_PERICENTER":101.2977,"MEAN_ANOMALY":258.8341,"EPHEMERIS_TYPE":0,"CLASSIFICATION_TYPE":"U","NORAD_CAT_ID":54127,"ELEMENT_SET_NO":999,"REV_AT_EPOCH":14205,"BSTAR":0.00011350006,"MEAN_MOTION_DOT":5.8e-7,"MEAN_MOTION_DDOT":0},{"OBJECT_NAME":"ONEWEB-0510","OBJECT_ID":"2022-138R","EPOCH":"2025-09-26T17:24:12.097728","MEAN_MOTION":13.20770951,"ECCENTRICITY":0.00024354,"INCLINATION":87.9248,"RA_OF_ASC_NODE":326.9725,"ARG_OF_PERICENTER":94.6439,"MEAN_ANOMALY":265.4972,"EPHEMERIS_TYPE":0,"CLASSIFICATION_TYPE":"U","NORAD_CAT_ID":54128,"ELEMENT_SET_NO":999,"REV_AT_EPOCH":14450,"BSTAR":-0.00014812112,"MEAN_MOTION_DOT":-4.7e-7,"MEAN_MOTION_DDOT":0},{"OBJECT_NAME":"ONEWEB-0511","OBJECT_ID":"2022-138S","EPOCH":"2025-09-26T15:00:35.613216","MEAN_MOTION":13.19727075,"ECCENTRICITY":0.00016981,"INCLINATION":87.929,"RA_OF_ASC_NODE":357.3647,"ARG_OF_PERICENTER":90.4218,"MEAN_ANOMALY":269.711,"EPHEMERIS_TYPE":0,"CLASSIFICATION_TYPE":"U","NORAD_CAT_ID":54129,"ELEMENT_SET_NO":999,"REV_AT_EPOCH":14207,"BSTAR":-0.00028013513,"MEAN_MOTION_DOT":-9.9e-7,"MEAN_MOTION_DDOT":0},{"OBJECT_NAME":"ONEWEB-0512","OBJECT_ID":"2022-138T","EPOCH":"2025-09-26T16:38:25.809792","MEAN_MOTION":13.19729714,"ECCENTRICITY":0.00013647,"INCLINATION":87.9272,"RA_OF_ASC_NODE":357.3884,"ARG_OF_PERICENTER":99.5658,"MEAN_ANOMALY":260.5629,"EPHEMERIS_TYPE":0,"CLASSIFICATION_TYPE":"U","NORAD_CAT_ID":54130,"ELEMENT_SET_NO":999,"REV_AT_EPOCH":14205,"BSTAR":0.00011566208,"MEAN_MOTION_DOT":5.9e-7,"MEAN_MOTION_DDOT":0},{"OBJECT_NAME":"ONEWEB-0513","OBJECT_ID":"2022-138U","EPOCH":"2025-09-26T15:46:56.216640","MEAN_MOTION":13.20314724,"ECCENTRICITY":0.00013349,"INCLINATION":87.9296,"RA_OF_ASC_NODE":357.3557,"ARG_OF_PERICENTER":84.1157,"MEAN_ANOMALY":276.0128,"EPHEMERIS_TYPE":0,"CLASSIFICATION_TYPE":"U","NORAD_CAT_ID":54131,"ELEMENT_SET_NO":999,"REV_AT_EPOCH":14194,"BSTAR":1.347724e-6,"MEAN_MOTION_DOT":1.3e-7,"MEAN_MOTION_DDOT":0},{"OBJECT_NAME":"ONEWEB-0514","OBJECT_ID":"2022-138V","EPOCH":"2025-09-26T17:01:09.954336","MEAN_MOTION":13.19726338,"ECCENTRICITY":0.00018554,"INCLINATION":87.9292,"RA_OF_ASC_NODE":357.3616,"ARG_OF_PERICENTER":97.4203,"MEAN_ANOMALY":262.714,"EPHEMERIS_TYPE":0,"CLASSIFICATION_TYPE":"U","NORAD_CAT_ID":54132,"ELEMENT_SET_NO":999,"REV_AT_EPOCH":14207,"BSTAR":5.3824702e-5,"MEAN_MOTION_DOT":3.4e-7,"MEAN_MOTION_DDOT":0},{"OBJECT_NAME":"ONEWEB-0515","OBJECT_ID":"2022-138W","EPOCH":"2025-09-26T17:05:59.823744","MEAN_MOTION":13.20771603,"ECCENTRICITY":0.0002702,"INCLINATION":87.9257,"RA_OF_ASC_NODE":326.9552,"ARG_OF_PERICENTER":108.607,"MEAN_ANOMALY":251.5357,"EPHEMERIS_TYPE":0,"CLASSIFICATION_TYPE":"U","NORAD_CAT_ID":54133,"ELEMENT_SET_NO":999,"REV_AT_EPOCH":14452,"BSTAR":-0.0001493008,"MEAN_MOTION_DOT":-4.8e-7,"MEAN_MOTION_DDOT":0},{"OBJECT_NAME":"ONEWEB-0516","OBJECT_ID":"2022-138X","EPOCH":"2025-09-26T18:13:56.858304","MEAN_MOTION":13.19724894,"ECCENTRICITY":0.00016957,"INCLINATION":87.9273,"RA_OF_ASC_NODE":357.3803,"ARG_OF_PERICENTER":104.8379,"MEAN_ANOMALY":255.2942,"EPHEMERIS_TYPE":0,"CLASSIFICATION_TYPE":"U","NORAD_CAT_ID":54134,"ELEMENT_SET_NO":999,"REV_AT_EPOCH":14208,"BSTAR":-0.00012789741,"MEAN_MOTION_DOT":-3.8e-7,"MEAN_MOTION_DDOT":0},{"OBJECT_NAME":"ONEWEB-0517","OBJECT_ID":"2022-138Y","EPOCH":"2025-09-26T17:44:22.772544","MEAN_MOTION":13.19725787,"ECCENTRICITY":0.00018116,"INCLINATION":87.9292,"RA_OF_ASC_NODE":357.3508,"ARG_OF_PERICENTER":90.5001,"MEAN_ANOMALY":269.6339,"EPHEMERIS_TYPE":0,"CLASSIFICATION_TYPE":"U","NORAD_CAT_ID":54135,"ELEMENT_SET_NO":999,"REV_AT_EPOCH":14208,"BSTAR":-2.9096386e-5,"MEAN_MOTION_DOT":1.0e-8,"MEAN_MOTION_DDOT":0},{"OBJECT_NAME":"ONEWEB-0518","OBJECT_ID":"2022-138Z","EPOCH":"2025-09-26T16:22:28.800192","MEAN_MOTION":13.19725822,"ECCENTRICITY":0.00016215,"INCLINATION":87.9283,"RA_OF_ASC_NODE":357.3964,"ARG_OF_PERICENTER":101.4619,"MEAN_ANOMALY":258.6696,"EPHEMERIS_TYPE":0,"CLASSIFICATION_TYPE":"U","NORAD_CAT_ID":54136,"ELEMENT_SET_NO":999,"REV_AT_EPOCH":14207,"BSTAR":6.1920936e-5,"MEAN_MOTION_DOT":3.8e-7,"MEAN_MOTION_DDOT":0},{"OBJECT_NAME":"ONEWEB-0519","OBJECT_ID":"2022-138AA","EPOCH":"2025-09-26T16:58:53.347296","MEAN_MOTION":13.19727022,"ECCENTRICITY":0.0001723,"INCLINATION":87.9289,"RA_OF_ASC_NODE":357.3488,"ARG_OF_PERICENTER":91.7525,"MEAN_ANOMALY":268.3805,"EPHEMERIS_TYPE":0,"CLASSIFICATION_TYPE":"U","NORAD_CAT_ID":54137,"ELEMENT_SET_NO":999,"REV_AT_EPOCH":14208,"BSTAR":8.8644242e-5,"MEAN_MOTION_DOT":4.8e-7,"MEAN_MOTION_DDOT":0},{"OBJECT_NAME":"ONEWEB-0520","OBJECT_ID":"2022-138AB","EPOCH":"2025-09-26T17:48:54.732096","MEAN_MOTION":13.1972569,"ECCENTRICITY":0.00014864,"INCLINATION":87.9291,"RA_OF_ASC_NODE":357.3456,"ARG_OF_PERICENTER":104.9158,"MEAN_ANOMALY":255.214,"EPHEMERIS_TYPE":0,"CLASSIFICATION_TYPE":"U","NORAD_CAT_ID":54138,"ELEMENT_SET_NO":999,"REV_AT_EPOCH":14207,"BSTAR":-8.7107251e-5,"MEAN_MOTION_DOT":-2.2e-7,"MEAN_MOTION_DDOT":0},{"OBJECT_NAME":"ONEWEB-0521","OBJECT_ID":"2022-138AC","EPOCH":"2025-09-26T14:58:19.777728","MEAN_MOTION":13.19723881,"ECCENTRICITY":0.00018429,"INCLINATION":87.9292,"RA_OF_ASC_NODE":357.3548,"ARG_OF_PERICENTER":93.3083,"MEAN_ANOMALY":266.8261,"EPHEMERIS_TYPE":0,"CLASSIFICATION_TYPE":"U","NORAD_CAT_ID":54139,"ELEMENT_SET_NO":999,"REV_AT_EPOCH":14200,"BSTAR":-0.0012745013,"MEAN_MOTION_DOT":-4.97e-6,"MEAN_MOTION_DDOT":0},{"OBJECT_NAME":"ONEWEB-0522","OBJECT_ID":"2022-138AD","EPOCH":"2025-09-26T18:07:06.475584","MEAN_MOTION":13.19726515,"ECCENTRICITY":0.00017396,"INCLINATION":87.929,"RA_OF_ASC_NODE":357.3301,"ARG_OF_PERICENTER":102.587,"MEAN_ANOMALY":257.5458,"EPHEMERIS_TYPE":0,"CLASSIFICATION_TYPE":"U","NORAD_CAT_ID":54140,"ELEMENT_SET_NO":999,"REV_AT_EPOCH":14206,"BSTAR":-4.2377503e-5,"MEAN_MOTION_DOT":-4.0e-8,"MEAN_MOTION_DDOT":0},{"OBJECT_NAME":"ONEWEB-0523","OBJECT_ID":"2022-138AE","EPOCH":"2025-09-26T14:58:45.004800","MEAN_MOTION":13.20772533,"ECCENTRICITY":0.00027238,"INCLINATION":87.9247,"RA_OF_ASC_NODE":326.9978,"ARG_OF_PERICENTER":95.4854,"MEAN_ANOMALY":264.659,"EPHEMERIS_TYPE":0,"CLASSIFICATION_TYPE":"U","NORAD_CAT_ID":54141,"ELEMENT_SET_NO":999,"REV_AT_EPOCH":14451,"BSTAR":9.1141e-8,"MEAN_MOTION_DOT":1.3e-7,"MEAN_MOTION_DDOT":0},{"OBJECT_NAME":"ONEWEB-0524","OBJECT_ID":"2022-138AF","EPOCH":"2025-09-26T16:31:54.966432","MEAN_MOTION":13.20769529,"ECCENTRICITY":0.00025391,"INCLINATION":87.925,"RA_OF_ASC_NODE":326.9858,"ARG_OF_PERICENTER":114.5868,"MEAN_ANOMALY":245.5531,"EPHEMERIS_TYPE":0,"CLASSIFICATION_TYPE":"U","NORAD_CAT_ID":54142,"ELEMENT_SET_NO":999,"REV_AT_EPOCH":14452,"BSTAR":-4.9339679e-5,"MEAN_MOTION_DOT":-7.0e-8,"MEAN_MOTION_DDOT":0},{"OBJECT_NAME":"ONEWEB-0525","OBJECT_ID":"2022-138AG","EPOCH":"2025-09-26T16:45:13.664448","MEAN_MOTION":13.19725016,"ECCENTRICITY":0.00014884,"INCLINATION":87.9293,"RA_OF_ASC_NODE":357.3631,"ARG_OF_PERICENTER":104.8135,"MEAN_ANOMALY":255.3163,"EPHEMERIS_TYPE":0,"CLASSIFICATION_TYPE":"U","NORAD_CAT_ID":54143,"ELEMENT_SET_NO":999,"REV_AT_EPOCH":14207,"BSTAR":0.00010437839,"MEAN_MOTION_DOT":5.5e-7,"MEAN_MOTION_DDOT":0},{"OBJECT_NAME":"ONEWEB-0526","OBJECT_ID":"2022-138AH","EPOCH":"2025-09-26T17:32:59.517024","MEAN_MOTION":13.19725577,"ECCENTRICITY":0.00017516,"INCLINATION":87.9288,"RA_OF_ASC_NODE":357.3434,"ARG_OF_PERICENTER":102.9968,"MEAN_ANOMALY":257.136,"EPHEMERIS_TYPE":0,"CLASSIFICATION_TYPE":"U","NORAD_CAT_ID":54144,"ELEMENT_SET_NO":999,"REV_AT_EPOCH":14205,"BSTAR":0.00018051991,"MEAN_MOTION_DOT":8.5e-7,"MEAN_MOTION_DDOT":0},{"OBJECT_NAME":"ONEWEB-0529","OBJECT_ID":"2022-138AJ","EPOCH":"2025-09-26T17:37:33.239136","MEAN_MOTION":13.19725927,"ECCENTRICITY":0.00015887,"INCLINATION":87.9279,"RA_OF_ASC_NODE":357.3811,"ARG_OF_PERICENTER":104.9764,"MEAN_ANOMALY":255.1545,"EPHEMERIS_TYPE":0,"CLASSIFICATION_TYPE":"U","NORAD_CAT_ID":54145,"ELEMENT_SET_NO":999,"REV_AT_EPOCH":14207,"BSTAR":7.9728411e-5,"MEAN_MOTION_DOT":4.5e-7,"MEAN_MOTION_DDOT":0},{"OBJECT_NAME":"ONEWEB-0531","OBJECT_ID":"2022-138AK","EPOCH":"2025-09-26T16:11:26.805984","MEAN_MOTION":13.20774315,"ECCENTRICITY":0.000271,"INCLINATION":87.9249,"RA_OF_ASC_NODE":326.9795,"ARG_OF_PERICENTER":101.1385,"MEAN_ANOMALY":259.0053,"EPHEMERIS_TYPE":0,"CLASSIFICATION_TYPE":"U","NORAD_CAT_ID":54146,"ELEMENT_SET_NO":999,"REV_AT_EPOCH":14452,"BSTAR":-0.00053237718,"MEAN_MOTION_DOT":-2.03e-6,"MEAN_MOTION_DDOT":0},{"OBJECT_NAME":"ONEWEB-0535","OBJECT_ID":"2022-138AL","EPOCH":"2025-09-26T16:36:07.428096","MEAN_MOTION":13.19726518,"ECCENTRICITY":0.00021629,"INCLINATION":87.929,"RA_OF_ASC_NODE":357.3466,"ARG_OF_PERICENTER":96.2538,"MEAN_ANOMALY":263.8841,"EPHEMERIS_TYPE":0,"CLASSIFICATION_TYPE":"U","NORAD_CAT_ID":54147,"ELEMENT_SET_NO":999,"REV_AT_EPOCH":14208,"BSTAR":-6.0155796e-5,"MEAN_MOTION_DOT":-1.1e-7,"MEAN_MOTION_DDOT":0},{"OBJECT_NAME":"ONEWEB-0536","OBJECT_ID":"2022-138AM","EPOCH":"2025-09-26T15:53:16.846656","MEAN_MOTION":13.20771677,"ECCENTRICITY":0.00028859,"INCLINATION":87.9248,"RA_OF_ASC_NODE":327.0293,"ARG_OF_PERICENTER":105.5392,"MEAN_ANOMALY":254.606,"EPHEMERIS_TYPE":0,"CLASSIFICATION_TYPE":"U","NORAD_CAT_ID":54148,"ELEMENT_SET_NO":999,"REV_AT_EPOCH":14451,"BSTAR":2.6101972e-5,"MEAN_MOTION_DOT":2.4e-7,"MEAN_MOTION_DDOT":0},{"OBJECT_NAME":"ONEWEB-0527","OBJECT_ID":"2022-166A","EPOCH":"2025-09-26T14:18:58.908096","MEAN_MOTION":13.21823796,"ECCENTRICITY":0.00018548,"INCLINATION":87.9183,"RA_OF_ASC_NODE":296.6023,"ARG_OF_PERICENTER":95.542,"MEAN_ANOMALY":264.5926,"EPHEMERIS_TYPE":0,"CLASSIFICATION_TYPE":"U","NORAD_CAT_ID":54642,"ELEMENT_SET_NO":999,"REV_AT_EPOCH":13671,"BSTAR":-0.00026605892,"MEAN_MOTION_DOT":-9.7e-7,"MEAN_MOTION_DDOT":0}]
